CAS-2T & KS-1Q          
1 41847U 16066G   23079.76018589  .00002481  00000+0  37486-3 0  9993
2 41847  98.5129 148.7186 0362015 102.6694 261.5216 14.39396663334081
NAYIF-1 (EO-88)         
1 42017U 17008BX  23079.14004477  .00084128  00000+0  12611-2 0  9993
2 42017  97.2257 148.2171 0001974 309.5601  50.5479 15.54649810339533
ZHUHAI-1 02 (CAS-4B)    
1 42759U 17034B   23079.82311778  .00011341  00000+0  59720-3 0  9995
2 42759  43.0169 246.2888 0011411 255.1512 204.7783 15.15573626318227
ZHUHAI-1 01 (CAS-4A)    
1 42761U 17034D   23079.84302774  .00011906  00000+0  62453-3 0  9990
2 42761  43.0164 244.7485 0012359 255.2892 212.1417 15.15662771318233
MAX VALIER SAT          
1 42778U 17036P   23079.61251644  .00019980  00000+0  59766-3 0  9997
2 42778  97.1698 116.7446 0010392  70.5379 289.6986 15.34534483319129
RADFXSAT (FOX-1B)       
1 43017U 17073E   23079.67466659  .00011744  00000+0  83587-3 0  9993
2 43017  97.6440 327.5263 0238185   1.6676 358.5279 14.84658553288048
FOX-1D (AO-92)          
1 43137U 18004AC  23079.74081827  .00035357  00000+0  89763-3 0  9997
2 43137  97.3362 158.3634 0007032 104.4594 255.7432 15.39554302288675
DIWATA-2B               
1 43678U 18084H   23079.93835567  .00002852  00000+0  27956-3 0  9994
2 43678  98.0044 222.2251 0010734  92.9960 267.2487 14.93038704239099
ES'HAIL 2               
1 43700U 18090A   23079.71855413  .00000126  00000+0  00000+0 0  9994
2 43700   0.0199 246.2518 0000944 123.9842  92.2246  1.00272123 15794
FOX-1CLIFF (AO-95)      
1 43770U 18099N   23079.66571395  .00007380  00000+0  61595-3 0  9997
2 43770  97.5850 143.6055 0015436  71.9340 288.3563 14.98757323234344
ITASAT 1                
1 43786U 18099AE  23079.71947717  .00006243  00000+0  52430-3 0  9990
2 43786  97.5855 144.6897 0015412  66.2923 293.9915 14.98574858234397
JY1SAT (JO-97)          
1 43803U 18099AX  23079.41030739  .00007111  00000+0  58031-3 0  9992
2 43803  97.5857 144.3010 0015620  60.2967 299.9809 14.99636537234387
UWE-4                   
1 43880U 18111E   23079.66464954  .00008251  00000+0  65040-3 0  9993
2 43880  97.6475 346.2516 0017605 109.4722 250.8406 15.00894835229083
NEXUS (FO-99)           
1 43937U 19003F   23079.81461877  .00049500  00000+0  10997-2 0  9997
2 43937  97.0995 108.6440 0014023 231.3206 128.6789 15.43429376232379
JAISAT-1                
1 44419U 19038F   23079.69471067  .00029867  00000+0  11728-2 0  9996
2 44419  97.6686  58.7975 0013034 248.3439 111.6411 15.25583571205027
DUCHIFAT-3              
1 44854U 19089C   23079.88539309  .00011917  00000+0  83670-3 0  9993
2 44854  36.9644 258.4041 0009835 321.5012 149.7067 15.04562115179520
CAS-6 (TIANQIN 1)       
1 44881U 19093C   23080.00902550  .00001825  00000+0  23464-3 0  9998
2 44881  97.8659 159.9600 0015087  10.9287 349.2224 14.82286280175739
RS-44 & BREEZE-KM R/B   
1 44909U 19096E   23079.64299626  .00000019  00000+0  26554-4 0  9991
2 44909  82.5218  46.7711 0218222  34.2469 327.2486 12.79719249150835
HUSKYSAT-1 (HO-107)     
1 45119U 19071J   23079.80893465  .00384824  00000+0  14777-2 0  9998
2 45119  51.6249 119.2979 0010237  50.6192 309.5717 15.85745718176370
BY70-2                  
1 45857U 20042B   23079.82413788  .00027285  00000+0  30690-2 0  9992
2 45857  97.9293 159.6525 0008759 289.7377  70.2749 14.86615275146392
SALSAT                  
1 46495U 20068K   23079.76125991  .00006592  00000+0  44656-3 0  9994
2 46495  97.7615  26.9403 0017830  63.9569 296.3491 15.06691508135752
BY70-3                  
1 46839U 20079N   23079.90235501  .00518812  00000+0  21562-2 0  9996
2 46839  97.1513 157.0389 0003792 253.1101 220.2831 15.84453482133138
RADFXSAT-2 (AO-109)     
1 47311U 21002C   23079.42581411  .00030399  00000+0  91257-3 0  9998
2 47311  60.6830  38.5493 0031235 126.9523 233.4437 15.33834627120646
UVSQ-SAT                
1 47438U 21006AB  23079.72737156  .00017588  00000+0  78572-3 0  9994
2 47438  97.3967 138.2396 0010790  40.8127 319.3915 15.21351905119183
DIY-1 (ARDUIQUBE)       
1 47963U 21022AH  23079.70967972  .00098062  00000+0  28688-2 0  9992
2 47963  97.5084 345.1650 0006569 238.2247 121.8357 15.34851538108911
XW-3 (CAS-9)            
1 50466U 21131B   23079.92379317  .00000898  00000+0  30679-3 0  9993
2 50466  98.5548 161.7456 0005139  57.8505 302.3180 14.38760536 64662
TEVEL-3                 
1 50988U 22002E   23079.91616052  .00024332  00000+0  10887-2 0  9996
2 50988  97.4438 147.6801 0009560 175.8268 299.1907 15.21243669 65323
TEVEL-8                 
1 50989U 22002F   23079.92021063  .00024153  00000+0  10825-2 0  9993
2 50989  97.4449 147.7316 0009966 177.2104 237.1349 15.21182242 65324
TEVEL-5                 
1 50998U 22002Q   23079.90450936  .00025016  00000+0  10969-2 0  9994
2 50998  97.4434 147.9580 0010740 172.0438 303.2894 15.21917431 65346
TEVEL-6                 
1 50999U 22002R   23079.90316650  .00025358  00000+0  11119-2 0  9996
2 50999  97.4430 147.9541 0009627 173.0473 302.3678 15.21925167 65347
TEVEL-1                 
1 51013U 22002AF  23079.92263889  .00024071  00000+0  10782-2 0  9997
2 51013  97.4443 147.6393 0009671 177.2554 292.7028 15.21206840 65325
TEVEL-7                 
1 51062U 22002CG  23079.92198900  .00024122  00000+0  10810-2 0  9991
2 51062  97.4445 147.7080 0009524 179.1636 235.1667 15.21191230 65320
TEVEL-4                 
1 51063U 22002CH  23079.94728646  .00023931  00000+0  10736-2 0  9994
2 51063  97.4444 147.7234 0009409 179.3955 354.1559 15.21155184 65329
TEVEL-2                 
1 51069U 22002CP  23079.91790373  .00024397  00000+0  10914-2 0  9998
2 51069  97.4434 147.6566 0009890 176.4677 297.8174 15.21244651 65328
GREENCUBE               
1 53106U 22080B   23075.13340333 -.00000003  00000+0  00000+0 0  9996
2 53106  70.1817 352.0525 0008319 207.8404 152.1811  6.42557089 15774
RS29S (SXC3-2110 CYCLO*)
1 53373U 22096D   23079.95246647  .00033826  00000+0  10590-2 0  9992
2 53373  97.4220 345.5721 0003701  85.6677 333.9296 15.33026952 34147
RS32S (SXC3-212 MONITO*)
1 53374U 22096E   23079.88770713  .00032253  00000+0  10184-2 0  9993
2 53374  97.4203 345.4874 0004016  91.3714 333.3010 15.32765155 34134
RS34S (SXC3-218 KUZBAS*)
1 53375U 22096F   23079.94780154  .00027189  00000+0  89201-3 0  9990
2 53375  97.4214 345.4230 0003799  92.7529 327.3397 15.31572470 34135
RS23S (SXC3-21 UTMN)    
1 53376U 22096G   23079.93241035  .00029105  00000+0  94369-3 0  9991
2 53376  97.4213 345.4431 0003782  83.7803 338.9797 15.31936880 34136
RS28S (SXC3-214 MIET-A*)
1 53377U 22096H   23079.88011410  .00026378  00000+0  86733-3 0  9993
2 53377  97.4207 345.3676 0003801  85.4522 340.2302 15.31506272 34124
RS26S (KAI-1)           
1 53378U 22096J   23079.92868294  .00022295  00000+0  75285-3 0  9993
2 53378  97.4226 345.3319 0003663  83.9925  47.1963 15.30681089 34121
RS19S (SXC3-219 ISOI)   
1 53381U 22096M   23079.93594073  .00027981  00000+0  90026-3 0  9996
2 53381  97.4213 345.5883 0004917  46.9555  15.3068 15.32189303 34149
RS21S (CUBESX-HSE-2)    
1 53383U 22096P   23079.86090900  .00028675  00000+0  91786-3 0  9995
2 53383  97.4220 345.5451 0005401  46.5102  18.2671 15.32346321 34139
RS30S (SXC3-217 SIREN)  
1 53384U 22096Q   23080.02072084  .00025144  00000+0  82426-3 0  9998
2 53384  97.4224 345.6356 0005466  41.2363  16.4676 15.31607250 34158
RS20S (GEOSCAN-EDELVEIS)
1 53385U 22096R   23079.87254660  .00035527  00000+0  10662-2 0  9990
2 53385  97.4201 345.8213 0005468  42.4548  22.5539 15.34354168 34187
RS33S (SXC3-215 VIZARD) 
1 53386U 22096S   23079.94828881  .00044368  00000+0  12507-2 0  9994
2 53386  97.4201 346.1736 0006669  39.2592  21.1739 15.36267368 34206
CAS-5A (FO-118)         
1 54684U 22167C   23079.94169274  .00017469  00000+0  10311-2 0  9992
2 54684  97.5458 218.3460 0013799 276.8925 240.4431 15.11513910 15336
